COMMENT,ORIGINATOR,NORAD_CAT_ID,OBJECT_NAME,OBJECT_TYPE,CLASSIFICATION_TYPE,INTLDES,EPOCH,EPOCH_MICROSECONDS,MEAN_MOTION,ECCENTRICITY,INCLINATION,RA_OF_ASC_NODE,ARG_OF_PERICENTER,MEAN_ANOMALY,EPHEMERIS_TYPE,ELEMENT_SET_NO,REV_AT_EPOCH,BSTAR,MEAN_MOTION_DOT,MEAN_MOTION_DDOT,FILE,TLE_LINE0,TLE_LINE1,TLE_LINE2,OBJECT_ID,OBJECT_NUMBER,SEMIMAJOR_AXIS,PERIOD,APOGEE,PERIGEE,DECAYED
GENERATED VIA SPACETRACK.ORG API,18 SPCS,42915,TDRS 13,PAYLOAD,U,17047A,2024-03-27 15:00:08,210592,1.00272584,0.0015133,3.7098,342.9264,105.5245,310.6015,0,999,2421,0,-0.00000094,0,4248304,0 TDRS 13,1 42915U 17047A   24087.62509503 -.00000094  00000-0  00000-0 0  9995,2 42915   3.7098 342.9264 0015133 105.5245 310.6015  1.00272584 24219,2017-047A,42915,42164.508,1436.085,35850.181,35722.565,0
GENERATED VIA SPACETRACK.ORG API,18 SPCS,29162,EUTE 113 WEST A(SATMEX 6,PAYLOAD,U,06020A,2024-03-27 14:07:42,848832,0.99583869,0.0014574,0.2623,96.8399,355.1918,190.508,0,999,6533,0,0.00000063,0,4248095,0 EUTE 113 WEST A(SATMEX 6,1 29162U 06020A   24087.58869038  .00000063  00000-0  00000+0 0  9994,2 29162   0.2623  96.8399 0014574 355.1918 190.5080  0.99583869 65339,2006-020A,29162,42358.689,1446.017,36042.288,35918.821,0
GENERATED VIA SPACETRACK.ORG API,18 SPCS,29162,EUTE 113 WEST A(SATMEX 6,PAYLOAD,U,06020A,2024-03-27 14:07:42,848832,0.99583869,0.0014574,0.2623,96.8399,355.1918,190.508,0,999,6533,0,0.00000064,0,4248304,0 EUTE 113 WEST A(SATMEX 6,1 29162U 06020A   24087.58869038  .00000064  00000-0  00000-0 0  9996,2 29162   0.2623  96.8399 0014574 355.1918 190.5080  0.99583869 65339,2006-020A,29162,42358.689,1446.017,36042.288,35918.821,0
GENERATED VIA SPACETRACK.ORG API,18 SPCS,28945,SPAINSAT,PAYLOAD,U,06007A,2024-03-27 13:38:04,235712,1.00273749,0.0002826,0.0363,241.4036,97.5235,21.0584,0,999,6607,0,-0.00000207,0,4248840,0 SPAINSAT,1 28945U 06007A   24087.56810458 -.00000207  00000-0  00000+0 0  9998,2 28945   0.0363 241.4036 0002826  97.5235  21.0584  1.00273749 66073,2006-007A,28945,42164.181,1436.069,35797.962,35774.131,0
GENERATED VIA SPACETRACK.ORG API,18 SPCS,28945,SPAINSAT,PAYLOAD,U,06007A,2024-03-27 13:38:04,235712,1.00273749,0.0002826,0.0363,241.4036,97.5235,21.0584,0,999,6608,0,-0.00000207,0,4249182,0 SPAINSAT,1 28945U 06007A   24087.56810458 -.00000207  00000-0  00000-0 0  9999,2 28945   0.0363 241.4036 0002826  97.5235  21.0584  1.00273749 66084,2006-007A,28945,42164.181,1436.069,35797.962,35774.131,0
GENERATED VIA SPACETRACK.ORG API,18 SPCS,28945,SPAINSAT,PAYLOAD,U,06007A,2024-03-27 13:38:03,449472,1.00271517,0.0002789,0.0365,242.6643,119.2288,358.1051,0,999,6607,0,-0.00000207,0,4248304,0 SPAINSAT,1 28945U 06007A   24087.56809548 -.00000207  00000-0  00000-0 0  9997,2 28945   0.0365 242.6643 0002789 119.2288 358.1051  1.00271517 66074,2006-007A,28945,42164.807,1436.101,35798.432,35774.912,0
GENERATED VIA SPACETRACK.ORG API,18 SPCS,41937,SBIRS GEO 4 (USA 273),PAYLOAD,U,17004A,2024-03-27 13:31:06,114144,1.00272108,0.0002418,1.4446,351.7299,13.3583,286.3504,0,999,2646,0,-0.00000136,0,4247698,0 SBIRS GEO 4 (USA 273),1 41937U 17004A   24087.56326521 -.00000136  00000-0  00000+0 0  9997,2 41937   1.4446 351.7299 0002418  13.3583 286.3504  1.00272108 26466,2017-004A,41937,42164.641,1436.092,35796.702,35776.311,0
GENERATED VIA SPACETRACK.ORG API,18 SPCS,41548,BREEZE-M DEB,DEBRIS,U,15075J,2024-03-27 12:11:21,705504,1.021955,0.0361859,6.8431,63.7046,111.5378,252.4745,0,999,3097,0,-0.00000215,0,4249182,0 BREEZE-M DEB,1 41548U 15075J   24087.50789011 -.00000215  00000-0  00000-0 0  9991,2 41548   6.8431  63.7046 0361859 111.5378 252.4745  1.02195500 30971,2015-075J,41548,41633.922,1409.064,36762.348,33749.226,0
GENERATED VIA SPACETRACK.ORG API,18 SPCS,23712,USA 115,PAYLOAD,U,95060A,2024-03-27 11:01:30,4320,1.00274559,0.0003211,13.7716,9.6077,341.1603,239.9409,0,999,2350,0,-0.0000001,0,4247654,0 USA 115,1 23712U 95060A   24087.45937505 -.00000010  00000-0  00000+0 0  9995,2 23712  13.7716   9.6077 0003211 341.1603 239.9409  1.00274559 23505,1995-060A,23712,42163.954,1436.057,35799.358,35772.280,0
GENERATED VIA SPACETRACK.ORG API,18 SPCS,23712,USA 115,PAYLOAD,U,95060A,2024-03-27 11:01:30,4320,1.00274559,0.0003211,13.7716,9.6077,341.1603,239.9409,0,999,2474,0,-0.0000001,0,4247956,0 USA 115,1 23712U 95060A   24087.45937505 -.00000010  00000-0  00000-0 0  9996,2 23712  13.7716   9.6077 0003211 341.1603 239.9409  1.00274559 24742,1995-060A,23712,42163.954,1436.057,35799.358,35772.280,0
GENERATED VIA SPACETRACK.ORG API,18 SPCS,41469,IRNSS 1G,PAYLOAD,U,16027A,2024-03-27 10:38:42,681120,1.00265411,0.0005557,3.2574,122.171,300.0105,52.2339,0,999,2903,0,-0.00000325,0,4247956,0 IRNSS 1G,1 41469U 16027A   24087.44354955 -.00000325  00000-0  00000-0 0  9991,2 41469   3.2574 122.1710 0005557 300.0105  52.2339  1.00265411 29030,2016-027A,41469,42166.519,1436.188,35811.816,35764.952,0
GENERATED VIA SPACETRACK.ORG API,18 SPCS,22988,USA 99,PAYLOAD,U,94009A,2024-03-27 09:32:42,555264,1.0027452,0.0003208,16.3833,36.3032,321.9241,240.2722,0,999,2482,0,-0.00000186,0,4247956,0 USA 99,1 22988U 94009A   24087.39771476 -.00000186  00000-0  00000-0 0  9992,2 22988  16.3833  36.3032 0003208 321.9241 240.2722  1.00274520 24823,1994-009A,22988,42163.965,1436.058,35799.356,35772.304,0
GENERATED VIA SPACETRACK.ORG API,18 SPCS,8832,TITAN 3C TRANSTAGE DEB,DEBRIS,U,76023J,2024-03-27 08:31:42,583872,0.98259194,0.0138021,20.1542,52.9753,74.0003,107.3985,0,999,10961,0,-0.00000115,0,4248006,0 TITAN 3C TRANSTAGE DEB,1  8832U 76023J   24087.35535398 -.00000115  00000-0  00000+0 0  9998,2  8832  20.1542  52.9753 0138021  74.0003 107.3985  0.98259194109614,1976-023J,8832,42738.543,1465.512,36950.289,35770.526,0
GENERATED VIA SPACETRACK.ORG API,18 SPCS,8832,TITAN 3C TRANSTAGE DEB,DEBRIS,U,76023J,2024-03-27 08:31:42,583872,0.98259194,0.0138021,20.1542,52.9753,74.0003,107.3985,0,999,10962,0,-0.00000114,0,4248304,0 TITAN 3C TRANSTAGE DEB,1 08832U 76023J   24087.35535398 -.00000114  00000-0  00000-0 0  9998,2 08832  20.1542  52.9753 0138021  74.0003 107.3985  0.98259194109625,1976-023J,8832,42738.543,1465.512,36950.289,35770.526,0
GENERATED VIA SPACETRACK.ORG API,18 SPCS,20253,FLTSATCOM 8 (USA 46),PAYLOAD,U,89077A,2024-03-27 07:24:17,137152,1.00262721,0.0006689,12.6601,356.0585,1.731,64.0473,0,999,25248,0,-0.00000359,0,4247956,0 FLTSATCOM 8 (USA 46),1 20253U 89077A   24087.30853168 -.00000359  00000-0  00000-0 0  9996,2 20253  12.6601 356.0585 0006689   1.7310  64.0473  1.00262721252489,1989-077A,20253,42167.273,1436.227,35817.344,35760.932,0
GENERATED VIA SPACETRACK.ORG API,18 SPCS,29055,ASTRA 1KR,PAYLOAD,U,06012A,2024-03-27 06:34:42,599424,1.00274164,0.0002078,0.0216,274.4758,38.9594,349.609,0,999,6560,0,0.00000128,0,4247803,0 ASTRA 1KR,1 29055U 06012A   24087.27410416  .00000128  00000-0  00000+0 0  9996,2 29055   0.0216 274.4758 0002078  38.9594 349.6090  1.00274164 65607,2006-012A,29055,42164.065,1436.063,35794.692,35777.168,0
GENERATED VIA SPACETRACK.ORG API,18 SPCS,29055,ASTRA 1KR,PAYLOAD,U,06012A,2024-03-27 06:34:42,599424,1.00274164,0.0002078,0.0216,274.4758,38.9594,349.609,0,999,3757,0,0.00000128,0,4247956,0 ASTRA 1KR,1 29055U 06012A   24087.27410416  .00000128  00000-0  00000-0 0  9997,2 29055   0.0216 274.4758 0002078  38.9594 349.6090  1.00274164 37572,2006-012A,29055,42164.065,1436.063,35794.692,35777.168,0
GENERATED VIA SPACETRACK.ORG API,18 SPCS,43162,SBIRS GEO 3 (USA 282),PAYLOAD,U,18009A,2024-03-27 05:49:22,185696,1.00273446,0.0001989,2.461,332.6556,35.9569,104.4769,0,999,2269,0,0.00000134,0,4247718,0 SBIRS GEO 3 (USA 282),1 43162U 18009A   24087.24261789  .00000134  00000-0  00000+0 0  9991,2 43162   2.4610 332.6556 0001989  35.9569 104.4769  1.00273446 22692,2018-009A,43162,42164.266,1436.073,35794.518,35777.745,0
GENERATED VIA SPACETRACK.ORG API,18 SPCS,43162,SBIRS GEO 3 (USA 282),PAYLOAD,U,18009A,2024-03-27 05:49:22,185696,1.00273446,0.0001989,2.461,332.6556,35.9569,104.4769,0,999,2270,0,0.00000134,0,4247956,0 SBIRS GEO 3 (USA 282),1 43162U 18009A   24087.24261789  .00000134  00000-0  00000-0 0  9992,2 43162   2.4610 332.6556 0001989  35.9569 104.4769  1.00273446 22704,2018-009A,43162,42164.266,1436.073,35794.518,35777.745,0
GENERATED VIA SPACETRACK.ORG API,18 SPCS,25001,TITAN 3C TRANSTAGE DEB,DEBRIS,U,68081H,2024-03-27 05:43:32,632032,1.0169369,0.0070365,1.0192,349.6048,39.0621,86.3931,0,999,11005,0,0.00000019,0,4247806,0 TITAN 3C TRANSTAGE DEB,1 25001U 68081H   24087.23857213  .00000019  00000-0  00000+0 0  9992,2 25001   1.0192 349.6048 0070365  39.0621  86.3931  1.01693690110051,1968-081H,25001,41770.772,1416.017,35686.557,35098.717,0
GENERATED VIA SPACETRACK.ORG API,18 SPCS,25001,TITAN 3C TRANSTAGE DEB,DEBRIS,U,68081H,2024-03-27 05:43:32,632032,1.0169369,0.0070365,1.0192,349.6048,39.0621,86.3931,0,999,11006,0,0.00000019,0,4247956,0 TITAN 3C TRANSTAGE DEB,1 25001U 68081H   24087.23857213  .00000019  00000-0  00000-0 0  9993,2 25001   1.0192 349.6048 0070365  39.0621  86.3931  1.01693690110062,1968-081H,25001,41770.772,1416.017,35686.557,35098.717,0
GENERATED VIA SPACETRACK.ORG API,18 SPCS,44307,YAMAL 601,PAYLOAD,U,19031A,2024-03-27 04:58:55,956576,1.0027266,0.0002326,0.0105,172.9588,193.937,301.9488,0,999,1777,0,0.00000128,0,4247840,0 YAMAL 601,1 44307U 19031A   24087.20759209  .00000128  00000-0  00000+0 0  9997,2 44307   0.0105 172.9588 0002326 193.9370 301.9488  1.00272660 17770,2019-031A,44307,42164.487,1436.084,35796.159,35776.544,0
GENERATED VIA SPACETRACK.ORG API,18 SPCS,44307,YAMAL 601,PAYLOAD,U,19031A,2024-03-27 04:58:55,956576,1.0027266,0.0002326,0.0105,172.9588,193.937,301.9488,0,999,1777,0,0.00000127,0,4247956,0 YAMAL 601,1 44307U 19031A   24087.20759209  .00000127  00000-0  00000-0 0  9997,2 44307   0.0105 172.9588 0002326 193.9370 301.9488  1.00272660 17770,2019-031A,44307,42164.487,1436.084,35796.159,35776.544,0
